     2.11           N: GPS NAV DATA                         RINEX VERSION / TYPE
teqc  2019Feb25                         20221121 12:24:53UTCPGM / RUN BY / DATE
OSX ker:10.11.6|Core i5|gcc 4.3 -m64|OSX ker:10.10+|=+      COMMENT
    4.6566D-09  1.4901D-08 -5.9605D-08 -1.1921D-07          ION ALPHA
    8.1920D+04  8.1920D+04 -6.5536D+04 -5.2429D+05          ION BETA
   -9.313225746155D-10-5.329070518201D-15   319488     1539 DELTA-UTC: A0,A1,T,W
                                                            END OF HEADER
19 09  7  5 23 59 44.0 2.009375020862D-05-1.364242052659D-12 0.000000000000D+00
    1.000000000000D+00 1.271875000000D+01 5.060567935824D-09 2.065495026513D+00
    9.518116712570D-07 5.722318892367D-03 6.053596735001D-06 5.153617273331D+03
    8.638400000000D+04 1.378357410431D-07-2.120435852710D+00 1.415610313416D-07
    9.571828461419D-01 2.595000000000D+02-3.325285457315D-01-8.090336995010D-09
    2.314382117591D-10 1.000000000000D+00 1.539000000000D+03 0.000000000000D+00
    2.000000000000D+00 0.000000000000D+00-1.443549990654D-08 1.000000000000D+00
    7.921800000000D+04 4.000000000000D+00
 3 09  7  5 23 59 44.0 4.161098040640D-04 5.229594535194D-12 0.000000000000D+00
    0.000000000000D+00 1.262500000000D+01 5.742739208139D-09 1.327852723699D+00
    7.823109626770D-07 1.202244812157D-02 7.204711437225D-06 5.153633548737D+03
    8.638400000000D+04-2.346932888031D-07-2.308685789619D+00 1.620501279831D-07
    9.262586714430D-01 2.268437500000D+02 9.107797356661D-01-8.557499311338D-09
    3.839445642608D-10 1.000000000000D+00 1.539000000000D+03 0.000000000000D+00
    2.000000000000D+00 0.000000000000D+00-4.190951585770D-09 0.000000000000D+00
    8.398800000000D+04 4.000000000000D+00
